[{"OBJECT_NAME":"YAOGAN-30 02B","OBJECT_ID":"2017-058B","EPOCH":"2026-03-09T22:20:48.449184","MEAN_MOTION":15.02255785,"ECCENTRICITY":0.00019399,"INCLINATION":34.9967,"RA_OF_ASC_NODE":274.9762,"ARG_OF_PERICENTER":191.875,"MEAN_ANOMALY":168.1912,"EPHEMERIS_TYPE":0,"CLASSIFICATION_TYPE":"U","NORAD_CAT_ID":42946,"ELEMENT_SET_NO":999,"REV_AT_EPOCH":46092,"BSTAR":0.0003113928,"MEAN_MOTION_DOT":4.165e-5,"MEAN_MOTION_DDOT":0},{"OBJECT_NAME":"STARLINK-35144","OBJECT_ID":"2025-200U","EPOCH":"2026-03-09T17:14:37.836672","MEAN_MOTION":15.05654471,"ECCENTRICITY":0.00010828,"INCLINATION":97.6002,"RA_OF_ASC_NODE":139.7984,"ARG_OF_PERICENTER":131.9308,"MEAN_ANOMALY":228.2011,"EPHEMERIS_TYPE":0,"CLASSIFICATION_TYPE":"U","NORAD_CAT_ID":65538,"ELEMENT_SET_NO":999,"REV_AT_EPOCH":2913,"BSTAR":5.3980827e-5,"MEAN_MOTION_DOT":7.18e-6,"MEAN_MOTION_DDOT":0}]
